NORAD_CAT_ID,OBJECT_NAME,OBJECT_TYPE,EPOCH,MEAN_MOTION,ECCENTRICITY,INCLINATION,RA_OF_ASC_NODE,ARG_OF_PERICENTER,MEAN_ANOMALY,BSTAR,MEAN_MOTION_DOT,MEAN_MOTION_DDOT,TLE_LINE0,TLE_LINE1,TLE_LINE2,SEMIMAJOR_AXIS,PERIOD,APOGEE,PERIGEE,DECAYED
49435.0,STARLINK-3117,PAYLOAD,2023-03-16 15:36:57,15.08822934,0.00012,53.2161,58.0044,84.0591,276.0537,0.001343,0.0002114,0.0,0 STARLINK-3117,1 49435U 21104AD  23075.65066239  .00021140  00000-0  13430-2 0  9998,2 49435  53.2161  58.0044 0001200  84.0591 276.0537 15.08822934 74504,6917.933,95.439,540.628,538.967,0.0
49435.0,STARLINK-3117,PAYLOAD,2023-03-16 23:33:53,15.08828209,0.0001322,53.2179,56.5203,94.2357,265.8786,0.00030784,4.613e-05,0.0,0 STARLINK-3117,1 49435U 21104AD  23075.98186724  .00004613  00000-0  30784-3 0  9994,2 49435  53.2179  56.5203 0001322  94.2357 265.8786 15.08828209 75639,6917.916,95.438,540.696,538.867,0.0
49435.0,STARLINK-3117,PAYLOAD,2023-03-17 10:41:35,15.08834912,0.0001014,53.2171,54.437,95.4734,264.6374,0.0002511,3.71e-05,0.0,0 STARLINK-3117,1 49435U 21104AD  23076.44554816  .00003710  00000-0  25110-3 0  9991,2 49435  53.2171  54.4370 0001014  95.4734 264.6374 15.08834912 74629,6917.896,95.438,540.462,539.059,0.0
49435.0,STARLINK-3117,PAYLOAD,2023-03-17 21:49:17,15.08841228,8.59e-05,53.2169,52.3525,91.0474,269.0617,0.00047597,7.296e-05,0.0,0 STARLINK-3117,1 49435U 21104AD  23076.90922913  .00007296  00000-0  47597-3 0  9995,2 49435  53.2169  52.3525 0000859  91.0474 269.0617 15.08841228 74698,6917.877,95.437,540.336,539.147,0.0
49435.0,STARLINK-3117,PAYLOAD,2023-03-18 10:32:21,15.08869067,8.52e-05,53.2164,49.9738,91.5355,268.5735,0.0011798,0.00018553,0.0,0 STARLINK-3117,1 49435U 21104AD  23077.43914215  .00018553  00000-0  11798-2 0  9991,2 49435  53.2164  49.9738 0000852  91.5355 268.5735 15.08869067 75852,6917.792,95.436,540.246,539.067,0.0
49435.0,STARLINK-3117,PAYLOAD,2023-03-18 21:40:04,15.08845844,0.0001096,53.2157,47.8929,87.4731,272.6387,0.00026559,3.942e-05,0.0,0 STARLINK-3117,1 49435U 21104AD  23077.90282654  .00003942  00000-0  26559-3 0  9996,2 49435  53.2157  47.8929 0001096  87.4731 272.6387 15.08845844 74840,6917.863,95.437,540.486,538.969,0.0
49435.0,STARLINK-3117,PAYLOAD,2023-03-19 05:36:59,15.08854461,9.8e-05,53.2163,46.4055,98.8728,261.2375,0.00063675,9.864e-05,0.0,0 STARLINK-3117,1 49435U 21104AD  23078.23402385  .00009864  00000-0  63675-3 0  9997,2 49435  53.2163  46.4055 0000980  98.8728 261.2375 15.08854461 75976,6917.836,95.437,540.379,539.023,0.0
49435.0,STARLINK-3117,PAYLOAD,2023-03-19 10:23:08,15.08862475,0.0001098,53.2163,45.5134,78.2407,281.8709,0.0010473,0.00016429,0.0,0 STARLINK-3117,1 49435U 21104AD  23078.43274293  .00016429  00000-0  10473-2 0  9996,2 49435  53.2163  45.5134 0001098  78.2407 281.8709 15.08862475 74928,6917.812,95.436,540.436,538.917,0.0
49435.0,STARLINK-3117,PAYLOAD,2023-03-19 15:09:18,15.08831773,0.0001039,53.2168,44.6209,85.0653,275.0458,8.8976e-05,1.128e-05,0.0,0 STARLINK-3117,1 49435U 21104AD  23078.63146778  .00001128  00000-0  88976-4 0  9999,2 49435  53.2168  44.6209 0001039  85.0653 275.0458 15.08831773 76037,6917.906,95.438,540.489,539.052,0.0
49435.0,STARLINK-3117,PAYLOAD,2023-03-19 21:30:51,15.08837854,8.45e-05,53.2172,43.4318,84.5475,275.5614,0.00082625,0.00012886,0.0,0 STARLINK-3117,1 49435U 21104AD  23078.89642965  .00012886  00000-0  82625-3 0  9993,2 49435  53.2172  43.4318 0000845  84.5475 275.5614 15.08837854 74998,6917.887,95.438,540.337,539.167,0.0
49435.0,STARLINK-3117,PAYLOAD,2023-03-20 07:03:10,15.08849756,0.0001004,53.2171,41.6485,68.8268,291.2832,0.0017866,0.00028268,0.0,0 STARLINK-3117,1 49435U 21104AD  23079.29386981  .00028268  00000-0  17866-2 0  9996,2 49435  53.2171  41.6485 0001004  68.8268 291.2832 15.08849756 76134,6917.851,95.437,540.41,539.021,0.0
49435.0,STARLINK-3117,PAYLOAD,2023-03-20 15:00:06,15.08845673,9.51e-05,53.2176,40.1615,79.9675,280.1425,0.0011254,0.00017671,0.0,0 STARLINK-3117,1 49435U 21104AD  23079.62507192  .00017671  00000-0  11254-2 0  9993,2 49435  53.2176  40.1615 0000951  79.9675 280.1425 15.08845673 76187,6917.863,95.437,540.386,539.07,0.0
49435.0,STARLINK-3117,PAYLOAD,2023-03-21 06:53:57,15.08854839,0.0001085,53.2184,37.1873,89.7792,270.3325,0.00084219,0.00013146,0.0,0 STARLINK-3117,1 49435U 21104AD  23080.28746991  .00013146  00000-0  84219-3 0  9994,2 49435  53.2184  37.1873 0001085  89.7792 270.3325 15.08854839 76281,6917.835,95.437,540.451,538.949,0.0
49435.0,STARLINK-3117,PAYLOAD,2023-03-22 03:33:58,15.08847517,8.94e-05,53.2181,33.3229,103.455,256.6542,0.0012123,0.00019062,0.0,0 STARLINK-3117,1 49435U 21104AD  23081.14859372  .00019062  00000-0  12123-2 0  9995,2 49435  53.2181  33.3229 0000894 103.4550 256.6542 15.08847517 76412,6917.857,95.437,540.341,539.104,0.0
49435.0,STARLINK-3117,PAYLOAD,2023-03-22 06:44:44,15.08848227,9.33e-05,53.2171,32.7266,99.4225,260.6872,0.00061953,9.588e-05,0.0,0 STARLINK-3117,1 49435U 21104AD  23081.28107234  .00009588  00000-0  61953-3 0  9991,2 49435  53.2171  32.7266 0000933  99.4225 260.6872 15.08848227 76434,6917.855,95.437,540.366,539.075,0.0
49435.0,STARLINK-3117,PAYLOAD,2023-03-23 03:24:45,15.08852677,0.0001061,53.2182,28.8625,96.3252,263.7861,0.00099178,0.00015537,0.0,0 STARLINK-3117,1 49435U 21104AD  23082.14219250  .00015537  00000-0  99178-3 0  9990,2 49435  53.2182  28.8625 0001061  96.3252 263.7861 15.08852677 76560,6917.842,95.437,540.441,538.973,0.0
49435.0,STARLINK-3117,PAYLOAD,2023-03-23 06:35:31,15.08858901,0.0001093,53.2182,28.2682,99.3429,260.7687,0.0011103,0.00017436,0.0,0 STARLINK-3117,1 49435U 21104AD  23082.27467086  .00017436  00000-0  11103-2 0  9997,2 49435  53.2182  28.2682 0001093  99.3429 260.7687 15.08858901 75503,6917.823,95.436,540.444,538.931,0.0
49435.0,STARLINK-3117,PAYLOAD,2023-03-24 03:15:32,15.08866997,0.0001082,53.2181,24.4036,105.0199,255.0913,0.0017634,0.00027909,0.0,0 STARLINK-3117,1 49435U 21104AD  23083.13579021  .00027909  00000-0  17634-2 0  9997,2 49435  53.2181  24.4036 0001082 105.0199 255.0913 15.08866997 76717,6917.798,95.436,540.411,538.914,0.0
49435.0,STARLINK-3117,PAYLOAD,2023-03-24 04:50:55,15.08914322,0.0001057,53.2183,24.1063,99.1386,260.9725,0.0061403,0.00099012,0.0,0 STARLINK-3117,1 49435U 21104AD  23083.20203091  .00099012  00000-0  61403-2 0  9993,2 49435  53.2183  24.1063 0001057  99.1386 260.9725 15.08914322 76722,6917.653,95.433,540.249,538.787,0.0
49435.0,STARLINK-3117,PAYLOAD,2023-03-25 03:06:20,15.08837588,0.0001407,53.2179,19.9431,93.7265,266.3888,0.00090644,0.00014166,0.0,0 STARLINK-3117,1 49435U 21104AD  23084.12939999  .00014166  00000-0  90644-3 0  9995,2 49435  53.2179  19.9431 0001407  93.7265 266.3888 15.08837588 76866,6917.888,95.438,540.726,538.779,0.0
49435.0,STARLINK-3117,PAYLOAD,2023-03-25 06:17:06,15.08846712,0.0001434,53.2176,19.3485,100.7704,259.3449,0.0012876,0.00020267,0.0,0 STARLINK-3117,1 49435U 21104AD  23084.26187911  .00020267  00000-0  12876-2 0  9998,2 49435  53.2176  19.3485 0001434 100.7704 259.3449 15.08846712 76889,6917.86,95.437,540.717,538.733,0.0
49435.0,STARLINK-3117,PAYLOAD,2023-03-26 04:32:30,15.08852287,0.0001658,53.2178,15.1847,112.1951,247.9217,0.0017391,0.00027508,0.0,0 STARLINK-3117,1 49435U 21104AD  23085.18924120  .00027508  00000-0  17391-2 0  9993,2 49435  53.2178  15.1847 0001658 112.1951 247.9217 15.08852287 77023,6917.843,95.437,540.855,538.561,0.0
49435.0,STARLINK-3117,PAYLOAD,2023-03-27 04:23:17,15.08847801,0.0001687,53.2179,10.7237,106.5515,253.5663,0.00050314,7.73e-05,0.0,0 STARLINK-3117,1 49435U 21104AD  23086.18284187  .00007730  00000-0  50314-3 0  9994,2 49435  53.2179  10.7237 0001687 106.5515 253.5663 15.08847801 77173,6917.857,95.437,540.889,538.555,0.0
49435.0,STARLINK-3117,PAYLOAD,2023-03-28 01:03:18,15.08847642,0.0001344,53.2188,6.8571,103.5272,256.5869,0.00035396,5.351e-05,0.0,0 STARLINK-3117,1 49435U 21104AD  23087.04396083  .00005351  00000-0  35396-3 0  9999,2 49435  53.2188   6.8571 0001344 103.5272 256.5869 15.08847642 77306,6917.857,95.437,540.652,538.792,0.0
49435.0,STARLINK-3117,PAYLOAD,2023-03-28 21:43:18,15.08848063,0.0001281,53.2193,2.993,100.4357,259.6779,0.00013598,1.877e-05,0.0,0 STARLINK-3117,1 49435U 21104AD  23087.90507795  .00001877  00000-0  13598-3 0  9997,2 49435  53.2193   2.9930 0001281 100.4357 259.6779 15.08848063 76354,6917.856,95.437,540.607,538.835,0.0
49435.0,STARLINK-3117,PAYLOAD,2023-03-29 00:54:04,15.08851965,0.0001243,53.219,2.3993,93.3648,266.7486,0.00014384,2.003e-05,0.0,0 STARLINK-3117,1 49435U 21104AD  23088.03755548  .00002003  00000-0  14384-3 0  9999,2 49435  53.2190   2.3993 0001243  93.3648 266.7486 15.08851965 77456,6917.844,95.437,540.569,538.849,0.0
49435.0,STARLINK-3117,PAYLOAD,2023-03-30 03:55:37,15.08856974,0.0001167,53.2183,357.3435,97.467,262.6455,0.00017604,2.516e-05,0.0,0 STARLINK-3117,1 49435U 21104AD  23089.16362977  .00002516  00000-0  17604-3 0  9991,2 49435  53.2183 357.3435 0001167  97.4670 262.6455 15.08856974 77622,6917.829,95.436,540.501,538.886,0.0
49435.0,STARLINK-3117,PAYLOAD,2023-03-30 10:17:10,15.08857687,0.0001159,53.2181,356.1537,99.1715,260.9408,0.00024865,3.673e-05,0.0,0 STARLINK-3117,1 49435U 21104AD  23089.42858864  .00003673  00000-0  24865-3 0  9997,2 49435  53.2181 356.1537 0001159  99.1715 260.9408 15.08857687 76585,6917.826,95.436,540.493,538.89,0.0
49435.0,STARLINK-3117,PAYLOAD,2023-03-31 03:46:24,15.08855743,0.0001198,53.2188,352.8829,81.997,278.1158,0.00025493,3.773e-05,0.0,0 STARLINK-3117,1 49435U 21104AD  23090.15723174  .00003773  00000-0  25493-3 0  9993,2 49435  53.2188 352.8829 0001198  81.9970 278.1158 15.08855743 77770,6917.832,95.437,540.526,538.869,0.0
49435.0,STARLINK-3117,PAYLOAD,2023-04-01 02:01:49,15.08847372,0.0001203,53.2186,348.7205,106.7103,253.4021,0.0001142,1.53e-05,0.0,0 STARLINK-3117,1 49435U 21104AD  23091.08459762  .00001530  00000-0  11420-3 0  9999,2 49435  53.2186 348.7205 0001203 106.7103 253.4021 15.08847372 77911,6917.858,95.437,540.555,538.891,0.0
